[
    {
        "Altitude(m)": 604983.0530155317,
        "Argument of Periapsis(deg)": 0.0,
        "Eccentricity": 0.0,
        "Inclination(deg)": 60.0,
        "Latitude(deg)": -0.0926866044592598,
        "Longitude(deg)": -19.916083466387814,
        "Mean Anomaly(deg)": -180.0,
        "RAAN(deg)": 260.0,
        "Satellite Name": "Test1 1155",
        "Satellite Number": 1155,
        "Semi-Major Axis(m)": 6980739.136638005,
        "Time(s)": 0
    },
    {
        "Altitude(m)": 605055.3327427028,
        "Argument of Periapsis(deg)": 0.00010418945913296404,
        "Eccentricity": 0.0,
        "Inclination(deg)": 60.0,
        "Latitude(deg)": -0.6330960895682121,
        "Longitude(deg)": -19.647957779433202,
        "Mean Anomaly(deg)": -179.37989385453815,
        "RAAN(deg)": 259.99957995086027,
        "Satellite Name": "Test1 1155",
        "Satellite Number": 1155,
        "Semi-Major Axis(m)": 6980739.136638005,
        "Time(s)": 10
    }
]